O3B FM5                 
1 39188U 13031A   20033.92702480 -.00000016  00000-0  00000-0 0  9995
2 39188   0.0400 346.2731 0003248 334.9256  38.7747  5.00116104120748
O3B FM4                 
1 39189U 13031B   20034.77986424 -.00000015  00000-0  00000+0 0  9990
2 39189   0.0450  24.5032 0002600 292.7577  42.7156  5.00114211120805
O3B FM2                 
1 39190U 13031C   20034.84452863 -.00000015  00000-0  00000+0 0  9995
2 39190   0.0466  30.6023 0002873 145.1942 184.2027  5.00115884120773
O3B PFM                 
1 39191U 13031D   20033.69844853 -.00000016  00000-0  00000-0 0  9994
2 39191   0.0409 359.2952 0002447 323.5625  37.1220  5.00115243120645
O3B FM3                 
1 40079U 14038A   20033.77963333 -.00000016  00000-0  00000-0 0  9993
2 40079   0.0409  15.3441 0004936 302.2078  42.4066  5.00115824 96820
O3B FM7                 
1 40080U 14038B   20033.92614423 -.00000016  00000-0  00000-0 0  9995
2 40080   0.0390  21.2413 0000764 295.3201  43.4293  5.00116330101622
O3B FM6                 
1 40081U 14038C   20034.35214735 -.00000016  00000-0  00000+0 0  9995
2 40081   0.0420  16.1661 0002655 296.9594  46.8490  5.00114977101786
O3B FM8                 
1 40082U 14038D   20034.80521779 -.00000015  00000-0  00000+0 0  9994
2 40082   0.0441  19.2652 0002623 291.9957  48.7133  5.00115198101788
O3B FM10                
1 40348U 14083A   20033.83234924 -.00000016  00000-0  00000-0 0  9996
2 40348   0.0443   4.3892 0002636 307.8553  47.7298  5.00115414 93679
O3B FM11                
1 40349U 14083B   20033.84567340 -.00000016  00000-0  00000-0 0  9999
2 40349   0.0396   3.5968 0002074 320.1836  36.2022  5.00115985 93660
O3B FM12                
1 40350U 14083C   20033.71322286 -.00000016  00000-0  00000-0 0  9995
2 40350   0.0402   4.9918 0002369 305.4768  49.5073  5.00115602 93666
O3B FM9                 
1 40351U 14083D   20034.69861005 -.00000015  00000-0  00000-0 0  9990
2 40351   0.0386   2.9940 0002598 310.3557  46.6255  5.00115274 93739
DIAMOND RED             
1 42783U 17036U   20034.43673731  .00000918  00000-0  42425-4 0  9993
2 42783  97.3214  91.5834 0013247 137.9249 222.3008 15.22579375145209
DIAMOND GREEN           
1 42785U 17036W   20034.96131057  .00000857  00000-0  39795-4 0  9991
2 42785  97.3215  92.1256 0013161 136.8129 223.4142 15.22581537145278
DIAMOND BLUE            
1 42786U 17036X   20034.89478767  .00000851  00000-0  39529-4 0  9995
2 42786  97.3215  92.0572 0012995 137.1495 223.0757 15.22579892145261
LEO VANTAGE 1           
1 43113U 18004C   20034.47066587 -.00000054  00000-0 -12067-4 0  9998
2 43113  99.3972  94.2219 0006069  61.4896 298.6861 13.69841572103689
TINTIN A                
1 43216U 18020B   20034.11480900  .00000973  00000-0  47285-4 0  9998
2 43216  97.4512  44.3767 0011852 320.3141  39.7226 15.20767889107929
TINTIN B                
1 43217U 18020C   20035.02518539  .00001122  00000-0  54079-4 0  9996
2 43217  97.4572  45.9469 0010731 314.9837  45.0528 15.20762133108066
O3B FM15                
1 43231U 18024A   20033.76580553 -.00000016  00000-0  00000-0 0  9993
2 43231   0.0478   4.2559 0002850 311.4783  44.2396  5.00115260 34781
O3B FM16                
1 43232U 18024B   20034.61868204 -.00000015  00000-0  00000-0 0  9990
2 43232   0.0518   3.0433 0002819 313.9325  42.9990  5.00115272 34833
O3B FM14                
1 43233U 18024C   20034.65912706 -.00000015  00000-0  00000-0 0  9992
2 43233   0.0534   3.4177 0002639 313.8070  42.7515  5.00116505 34838
O3B FM13                
1 43234U 18024D   20033.67316055 -.00000016  00000-0  00000-0 0  9990
2 43234   0.0333 335.8249 0004071  21.0617   3.1074  5.00116041 34774
O3B FM20                
1 44112U 19020A   20034.28540945 -.00000016  00000-0  00000+0 0  9997
2 44112   0.0445   5.2678 0002767 318.1802  36.5298  5.00116802 15282
O3B FM19                
1 44113U 19020B   20033.67314587 -.00000016  00000-0  00000-0 0  9992
2 44113   0.0352 306.0774 0003957  21.8102  32.0849  5.00116058 15255
O3B FM17                
1 44114U 19020C   20033.99280445 -.00000016  00000-0  00000-0 0  9993
2 44114   0.0455   5.4927 0002879 311.7222  42.7594  5.00116116 15267
O3B FM18                
1 44115U 19020D   20034.53907119 -.00000015  00000-0  00000-0 0  9998
2 44115   0.0443   4.7575 0002882 309.3249  45.8906  5.00115679 15301
